{"type":"FeatureCollection","generatedAt":"2026-09-25T22:24:06.289468+00:00","features":[{"type":"Feature","properties":{"kind":"cafe","name":"Starbucks"},"geometry":{"type":"Point","coordinates":[-117.8420138,33.6483909]}},{"type":"Feature","properties":{"kind":"cafe","name":"Cafe Expresso"},"geometry":{"type":"Point","coordinates":[-117.8435116,33.6438677]}},{"type":"Feature","properties":{"kind":"restaurant","name":"Sgt. Pepperoni's Pizza Store"},"geometry":{"type":"Point","coordinates":[-117.8320399,33.6498198]}},{"type":"Feature","properties":{"kind":"cafe","name":"Peet's Coffee"},"geometry":{"type":"Point","coordinates":[-117.8379017,33.6504027]}},{"type":"Feature","properties":{"kind":"cafe","name":"Java City"},"geometry":{"type":"Point","coordinates":[-117.8411271,33.6433842]}},{"type":"Feature","properties":{"kind":"cafe","name":"The Green Room"},"geometry":{"type":"Point","coordinates":[-117.8447114,33.6497876]}},{"type":"Feature","properties":{"kind":"cafe","name":"Le Diplomate"},"geometry":{"type":"Point","coordinates":[-117.838411,33.6504303]}},{"type":"Feature","properties":{"kind":"ice_cream","name":"Yogurtland"},"geometry":{"type":"Point","coordinates":[-117.8388623,33.6506572]}},{"type":"Feature","properties":{"kind":"cafe","name":"Cyber Cafe"},"geometry":{"type":"Point","coordinates":[-117.8331359,33.6457947]}},{"type":"Feature","properties":{"kind":"atm","name":"Wells Fargo"},"geometry":{"type":"Point","coordinates":[-117.83219,33.6491071]}},{"type":"Feature","properties":{"kind":"fast_food","name":"Jersey Mike's Subs"},"geometry":{"type":"Point","coordinates":[-117.831915,33.6499451]}},{"type":"Feature","properties":{"kind":"restaurant","name":"I Heart Pancakes"},"geometry":{"type":"Point","coordinates":[-117.8324009,33.6494299]}},{"type":"Feature","properties":{"kind":"fast_food","name":"Subway"},"geometry":{"type":"Point","coordinates":[-117.842536,33.6492963]}},{"type":"Feature","properties":{"kind":"fast_food","name":"Panda Express"},"geometry":{"type":"Point","coordinates":[-117.8426328,33.6493554]}},{"type":"Feature","properties":{"kind":"fast_food","name":"Wahoo's Fish Taco"},"geometry":{"type":"Point","coordinates":[-117.8427038,33.6494145]}},{"type":"Feature","properties":{"kind":"fast_food","name":"Wendy's"},"geometry":{"type":"Point","coordinates":[-117.8427942,33.6494557]}},{"type":"Feature","properties":{"kind":"restaurant","name":"Fast Hotpot"},"geometry":{"type":"Point","coordinates":[-117.8387898,33.6507461]}},{"type":"Feature","properties":{"kind":"post_office","name":"United States Post Office"},"geometry":{"type":"Point","coordinates":[-117.8391158,33.6491782]}},{"type":"Feature","properties":{"kind":"fast_food","name":"Chipotle"},"geometry":{"type":"Point","coordinates":[-117.8393363,33.6495695]}},{"type":"Feature","properties":{"kind":"restaurant","name":"Luna Grill"},"geometry":{"type":"Point","coordinates":[-117.8390659,33.6505518]}},{"type":"Feature","properties":{"kind":"restaurant","name":"Eureka!"},"geometry":{"type":"Point","coordinates":[-117.8392235,33.6506544]}},{"type":"Feature","properties":{"kind":"restaurant","name":"Blaze Pizza"},"geometry":{"type":"Point","coordinates":[-117.8391137,33.6498111]}},{"type":"Feature","properties":{"kind":"bar","name":"Anthill Pub & Grille"},"geometry":{"type":"Point","coordinates":[-117.8423125,33.6489394]}},{"type":"Feature","properties":{"kind":"school","name":"English Language School"},"geometry":{"type":"Point","coordinates":[-117.8331576,33.6465699]}},{"type":"Feature","properties":{"kind":"shelter","name":"UCI Gazebo"},"geometry":{"type":"Point","coordinates":[-117.8428865,33.6433883]}},{"type":"Feature","properties":{"kind":"garden","name":"Aldrich Park Rock Garden"},"geometry":{"type":"Point","coordinates":[-117.8426521,33.6461292]}},{"type":"Feature","properties":{"kind":"social_facility","name":"UCI Campus Assault Resources & Education (CARE)"},"geometry":{"type":"Point","coordinates":[-117.8424932,33.6485004]}},{"type":"Feature","properties":{"kind":"fast_food","name":"Jamba"},"geometry":{"type":"Point","coordinates":[-117.842173,33.648908]}},{"type":"Feature","properties":{"kind":"cafe","name":"Pink Pig"},"geometry":{"type":"Point","coordinates":[-117.8389569,33.6497294]}},{"type":"Feature","properties":{"kind":"parcel_locker","name":"Amazon Locker"},"geometry":{"type":"Point","coordinates":[-117.839239,33.6499929]}},{"type":"Feature","properties":{"kind":"fast_food","name":"Dunkin'"},"geometry":{"type":"Point","coordinates":[-117.839266,33.6499326]}},{"type":"Feature","properties":{"kind":"restaurant","name":"Gogi"},"geometry":{"type":"Point","coordinates":[-117.8387638,33.650455]}},{"type":"Feature","properties":{"kind":"fast_food","name":"Jimmy John's"},"geometry":{"type":"Point","coordinates":[-117.8383192,33.6505913]}},{"type":"Feature","properties":{"kind":"cafe","name":"Sharetea"},"geometry":{"type":"Point","coordinates":[-117.8382038,33.6505756]}},{"type":"Feature","properties":{"kind":"fast_food","name":"Tender Greens"},"geometry":{"type":"Point","coordinates":[-117.838127,33.6503439]}},{"type":"Feature","properties":{"kind":"restaurant","name":"Mad Dumplings"},"geometry":{"type":"Point","coordinates":[-117.8379002,33.6505571]}},{"type":"Feature","properties":{"kind":"viewpoint","name":"Parker Vista"},"geometry":{"type":"Point","coordinates":[-117.833079,33.6367502]}},{"type":"Feature","properties":{"kind":"restaurant","name":"Northern Cafe"},"geometry":{"type":"Point","coordinates":[-117.8390073,33.6510422]}},{"type":"Feature","properties":{"kind":"restaurant","name":"Mendocino Farms"},"geometry":{"type":"Point","coordinates":[-117.8391533,33.6508338]}},{"type":"Feature","properties":{"kind":"fast_food","name":"Ray's Pizza"},"geometry":{"type":"Point","coordinates":[-117.838075,33.6506533]}},{"type":"Feature","properties":{"kind":"cafe","name":"Starbucks"},"geometry":{"type":"Point","coordinates":[-117.83159,33.649997]}},{"type":"Feature","properties":{"kind":"prep_school","name":"Kumon"},"geometry":{"type":"Point","coordinates":[-117.8380499,33.6507429]}},{"type":"Feature","properties":{"kind":"clinic","name":"Exer Urgent Care"},"geometry":{"type":"Point","coordinates":[-117.8391006,33.6502079]}},{"type":"Feature","properties":{"kind":"bank","name":"Chase"},"geometry":{"type":"Point","coordinates":[-117.8385115,33.6497695]}},{"type":"Feature","properties":{"kind":"restaurant","name":"Breakfast Republic"},"geometry":{"type":"Point","coordinates":[-117.8377808,33.6504111]}},{"type":"Feature","properties":{"kind":"cafe","name":"Cha For Tea"},"geometry":{"type":"Point","coordinates":[-117.8389583,33.6506626]}},{"type":"Feature","properties":{"kind":"internet_cafe","name":"eCyberDeck"},"geometry":{"type":"Point","coordinates":[-117.8387662,33.6498132]}},{"type":"Feature","properties":{"kind":"fast_food","name":"Blue Bowl"},"geometry":{"type":"Point","coordinates":[-117.8392792,33.6492571]}},{"type":"Feature","properties":{"kind":"restaurant","name":"YUP DDUK"},"geometry":{"type":"Point","coordinates":[-117.8322873,33.6492967]}},{"type":"Feature","properties":{"kind":"canteen","name":"The Anteatery"},"geometry":{"type":"Point","coordinates":[-117.845312,33.651055]}},{"type":"Feature","properties":{"kind":"food_court","name":"West Food Court"},"geometry":{"type":"Point","coordinates":[-117.8424624,33.6493948]}},{"type":"Feature","properties":{"kind":"food_court","name":"East Food Court"},"geometry":{"type":"Point","coordinates":[-117.8421392,33.6488455]}},{"type":"Feature","properties":{"kind":"canteen","name":"Brandywine"},"geometry":{"type":"Point","coordinates":[-117.8393971,33.6452842]}},{"type":"Feature","properties":{"kind":"research_institute","name":"Irvine Materials Research Institute"},"geometry":{"type":"Point","coordinates":[-117.84119,33.6438698]}},{"type":"Feature","properties":{"kind":"research_institute","name":"Laboratory for Fluorescence Dynamics"},"geometry":{"type":"Point","coordinates":[-117.8452895,33.6441319]}},{"type":"Feature","properties":{"kind":"artwork","name":"Form No. 2"},"geometry":{"type":"Point","coordinates":[-117.840335,33.6486023]}},{"type":"Feature","properties":{"kind":"information","name":"Welcome to UC Irvine's Ecological Preserve"},"geometry":{"type":"Point","coordinates":[-117.8466056,33.6402046]}},{"type":"Feature","properties":{"kind":"information","name":"House Rules for Trail Guests"},"geometry":{"type":"Point","coordinates":[-117.8466069,33.6402226]}},{"type":"Feature","properties":{"kind":"information","name":"Welcome to UC Irvine's Ecological Preserve"},"geometry":{"type":"Point","coordinates":[-117.8441539,33.6392093]}},{"type":"Feature","properties":{"kind":"information","name":"House Rules for Trail Guests"},"geometry":{"type":"Point","coordinates":[-117.8432224,33.6418572]}},{"type":"Feature","properties":{"kind":"information","name":"Welcome to UC Irvine's Ecological Preserve"},"geometry":{"type":"Point","coordinates":[-117.843239,33.641849]}},{"type":"Feature","properties":{"kind":"events_venue","name":"Dome of the Stars"},"geometry":{"type":"Point","coordinates":[-117.8392996,33.6454032]}},{"type":"Feature","properties":{"kind":"parcel_locker","name":"Carissmo"},"geometry":{"type":"Point","coordinates":[-117.8369804,33.6448141]}},{"type":"Feature","properties":{"kind":"vending_machine","name":"Pepsi"},"geometry":{"type":"Point","coordinates":[-117.8371219,33.6442841]}},{"type":"Feature","properties":{"kind":"parcel_locker","name":"Middle"},"geometry":{"type":"Point","coordinates":[-117.8371951,33.6442829]}},{"type":"Feature","properties":{"kind":"stadium","name":"Crawford Court"},"geometry":{"type":"Point","coordinates":[-117.8480478,33.6480508]}},{"type":"Feature","properties":{"kind":"pharmacy","name":"CVS Pharmacy"},"geometry":{"type":"Point","coordinates":[-117.8391367,33.6496684]}},{"type":"Feature","properties":{"kind":"cafe","name":"Starbucks"},"geometry":{"type":"Point","coordinates":[-117.8386714,33.6495053]}},{"type":"Feature","properties":{"kind":"fast_food","name":"Elixir Superfood & Juice"},"geometry":{"type":"Point","coordinates":[-117.8390623,33.650506]}},{"type":"Feature","properties":{"kind":"attraction","name":"The Balls"},"geometry":{"type":"Point","coordinates":[-117.8287055,33.6475151]}},{"type":"Feature","properties":{"kind":"information","name":"UCI welcome sign"},"geometry":{"type":"Point","coordinates":[-117.8246719,33.6498906]}},{"type":"Feature","properties":{"kind":"loading_dock","name":"Calit2 Loading Dock"},"geometry":{"type":"Point","coordinates":[-117.8416071,33.6427282]}},{"type":"Feature","properties":{"kind":"information","name":"UC Irvine Welcome sign"},"geometry":{"type":"Point","coordinates":[-117.8354836,33.6476585]}},{"type":"Feature","properties":{"kind":"fast_food","name":"The Buffalo Spot"},"geometry":{"type":"Point","coordinates":[-117.8321753,33.6492333]}},{"type":"Feature","properties":{"kind":"post_office","name":"Mailboxes Irvine"},"geometry":{"type":"Point","coordinates":[-117.832341,33.649483]}},{"type":"Feature","properties":{"kind":"ice_cream","name":"Saffron & Rose Persian Ice Cream"},"geometry":{"type":"Point","coordinates":[-117.8322999,33.6495258]}},{"type":"Feature","properties":{"kind":"restaurant","name":"Botan Sushi"},"geometry":{"type":"Point","coordinates":[-117.8321808,33.6496429]}},{"type":"Feature","properties":{"kind":"photo_booth","name":"Photo LaVie"},"geometry":{"type":"Point","coordinates":[-117.8389408,33.6503515]}},{"type":"Feature","properties":{"kind":"ice_cream","name":"Gelatissimo"},"geometry":{"type":"Point","coordinates":[-117.8382557,33.6503974]}},{"type":"Feature","properties":{"kind":"post_depot","name":"Mesa Court Mail Room"},"geometry":{"type":"Point","coordinates":[-117.8455338,33.6510292]}},{"type":"Feature","properties":{"kind":"cinema","name":"McCormick Screening Room"},"geometry":{"type":"Point","coordinates":[-117.8446712,33.6483765]}},{"type":"Feature","properties":{"kind":"university","name":"University of California, Irvine"},"geometry":{"type":"Point","coordinates":[-117.84140439173913,33.644104541304344]}},{"type":"Feature","properties":{"kind":"park","name":"Cornell Commons"},"geometry":{"type":"Point","coordinates":[-117.83343763913044,33.64983673043478]}},{"type":"Feature","properties":{"kind":"park","name":"Mountain View Park"},"geometry":{"type":"Point","coordinates":[-117.82234631600001,33.638451492]}},{"type":"Feature","properties":{"kind":"park","name":"Aldrich Park"},"geometry":{"type":"Point","coordinates":[-117.84280541960784,33.64585113333334]}},{"type":"Feature","properties":{"kind":"park","name":"Mason Regional Park"},"geometry":{"type":"Point","coordinates":[-117.83199643454546,33.65448348545454]}},{"type":"Feature","properties":{"kind":"park","name":"Stanford Park"},"geometry":{"type":"Point","coordinates":[-117.84251198490567,33.65430497924528]}},{"type":"Feature","properties":{"kind":"park","name":"Princeton Park"},"geometry":{"type":"Point","coordinates":[-117.84236745584415,33.656088472727276]}},{"type":"Feature","properties":{"kind":"park","name":"Gabrielino Park"},"geometry":{"type":"Point","coordinates":[-117.83484415833334,33.63779301666667]}},{"type":"Feature","properties":{"kind":"park","name":"Vista Bonita Park"},"geometry":{"type":"Point","coordinates":[-117.84164217749999,33.636641839999996]}},{"type":"Feature","properties":{"kind":"park","name":"Los Trancos Recreation Area"},"geometry":{"type":"Point","coordinates":[-117.84020943088235,33.64104940735294]}},{"type":"Feature","properties":{"kind":"water","name":"San Diego Creek"},"geometry":{"type":"Point","coordinates":[-117.83015381471321,33.679650317955115]}},{"type":"Feature","properties":{"kind":"park","name":"Turtle Rock Ridge Park"},"geometry":{"type":"Point","coordinates":[-117.82055285714286,33.641713857142854]}},{"type":"Feature","properties":{"kind":"park","name":"Grossmont Park"},"geometry":{"type":"Point","coordinates":[-117.82065178461538,33.6451197076923]}},{"type":"Feature","properties":{"kind":"school","name":"Turtle Rock Elementary School"},"geometry":{"type":"Point","coordinates":[-117.81872273125,33.64749916875]}},{"type":"Feature","properties":{"kind":"school","name":"University High School"},"geometry":{"type":"Point","coordinates":[-117.82261329166666,33.652122049999996]}},{"type":"Feature","properties":{"kind":"park","name":"Paseo Park"},"geometry":{"type":"Point","coordinates":[-117.82154808918919,33.64929007027027]}},{"type":"Feature","properties":{"kind":"grass","name":"Pelennor Fields"},"geometry":{"type":"Point","coordinates":[-117.83802715,33.64607035]}},{"type":"Feature","properties":{"kind":"park","name":"International Friendship Garden Park"},"geometry":{"type":"Point","coordinates":[-117.83694445416667,33.645862349999994]}},{"type":"Feature","properties":{"kind":"park","name":"Columbia Square"},"geometry":{"type":"Point","coordinates":[-117.82945782580646,33.65141197096774]}},{"type":"Feature","properties":{"kind":"park","name":"Parker Vista"},"geometry":{"type":"Point","coordinates":[-117.83295324285716,33.6365885047619]}},{"type":"Feature","properties":{"kind":"park","name":"Garden Park"},"geometry":{"type":"Point","coordinates":[-117.843694675,33.638906225]}},{"type":"Feature","properties":{"kind":"park","name":"Paseo Segovia Park"},"geometry":{"type":"Point","coordinates":[-117.82107346842105,33.64805750526316]}},{"type":"Feature","properties":{"kind":"grass","name":"Commencement Lawn"},"geometry":{"type":"Point","coordinates":[-117.8432637704918,33.64531436393443]}},{"type":"Feature","properties":{"kind":"garden","name":"Butterfly Garden"},"geometry":{"type":"Point","coordinates":[-117.83698018571428,33.65515921428572]}},{"type":"Feature","properties":{"kind":"park","name":"Playground Park"},"geometry":{"type":"Point","coordinates":[-117.82982844444444,33.6378236]}},{"type":"Feature","properties":{"kind":"park","name":"Vista Park"},"geometry":{"type":"Point","coordinates":[-117.8300632909091,33.63830787272727]}},{"type":"Feature","properties":{"kind":"grass","name":"Vista Field"},"geometry":{"type":"Point","coordinates":[-117.84928205,33.6506968]}},{"type":"Feature","properties":{"kind":"grass","name":"Crawford Field"},"geometry":{"type":"Point","coordinates":[-117.84974886,33.64861227]}},{"type":"Feature","properties":{"kind":"garden","name":"Laurel L. Wilkening Rose Garden"},"geometry":{"type":"Point","coordinates":[-117.840342645,33.648585409999995]}}]}